[{"OBJECT_NAME":"FALCONSAT-6","OBJECT_ID":"2018-099BK","EPOCH":"2026-03-09T17:24:38.352096","MEAN_MOTION":15.26532865,"ECCENTRICITY":0.00143698,"INCLINATION":97.3865,"RA_OF_ASC_NODE":145.8165,"ARG_OF_PERICENTER":297.0944,"MEAN_ANOMALY":181.0714,"EPHEMERIS_TYPE":0,"CLASSIFICATION_TYPE":"U","NORAD_CAT_ID":43815,"ELEMENT_SET_NO":999,"REV_AT_EPOCH":39855,"BSTAR":0.00019476898,"MEAN_MOTION_DOT":5.029e-5,"MEAN_MOTION_DDOT":0},{"OBJECT_NAME":"STARLINK-34783","OBJECT_ID":"2025-253U","EPOCH":"2026-03-09T10:55:08.706432","MEAN_MOTION":15.27570908,"ECCENTRICITY":0.00013251,"INCLINATION":43.0028,"RA_OF_ASC_NODE":214.2599,"ARG_OF_PERICENTER":266.6833,"MEAN_ANOMALY":93.3867,"EPHEMERIS_TYPE":0,"CLASSIFICATION_TYPE":"U","NORAD_CAT_ID":66337,"ELEMENT_SET_NO":999,"REV_AT_EPOCH":2020,"BSTAR":0.00095156447,"MEAN_MOTION_DOT":0.00026008,"MEAN_MOTION_DDOT":0}]
