FALCONSAT-6             
1 43815U 18099BK  26068.72544389  .00005029  00000+0  19477-3 0  9998
2 43815  97.3865 145.8165 0014370 297.0944 181.0714 15.26532865398556
STARLINK-34783          
1 66337U 25253U   26068.45496188  .00026008  00000+0  95156-3 0  9993
2 66337  43.0028 214.2599 0001325 266.6833  93.3867 15.27570908 20205
